{
    "links": {
        "self": "http://www.neowsapp.com/rest/v1/neo/3770147?api_key=iIulBulltgU6a56xZRHN4H3l9WmuAYTsLGpBGhQ2"
    },
    "id": "3770147",
    "neo_reference_id": "3770147",
    "name": "(2017 DY37)",
    "designation": "2017 DY37",
    "nasa_jpl_url": "http://ssd.jpl.nasa.gov/sbdb.cgi?sstr=3770147",
    "absolute_magnitude_h": 25.2,
    "estimated_diameter": {
        "kilometers": {
            "estimated_diameter_min": 0.0242412481,
            "estimated_diameter_max": 0.0542050786
        },
        "meters": {
            "estimated_diameter_min": 24.2412481101,
            "estimated_diameter_max": 54.2050786336
        },
        "miles": {
            "estimated_diameter_min": 0.0150628086,
            "estimated_diameter_max": 0.0336814639
        },
        "feet": {
            "estimated_diameter_min": 79.5316564495,
            "estimated_diameter_max": 177.8381901842
        }
    },
    "is_potentially_hazardous_asteroid": false,
    "close_approach_data": [
        {
            "close_approach_date": "2017-03-01",
            "close_approach_date_full": "2017-Mar-01 01:06",
            "epoch_date_close_approach": 1488330360000,
            "relative_velocity": {
                "kilometers_per_second": "15.6791473547",
                "kilometers_per_hour": "56444.9304769106",
                "miles_per_hour": "35072.6847177226"
            },
            "miss_distance": {
                "astronomical": "0.0610717115",
                "lunar": "23.7568957735",
                "kilometers": "9136197.957654505",
                "miles": "5676970.166281969"
            },
            "orbiting_body": "Earth"
        }
    ],
    "orbital_data": {
        "orbit_id": "5",
        "orbit_determination_date": "2018-02-10 07:08:44",
        "first_observation_date": "2017-02-25",
        "last_observation_date": "2017-03-03",
        "data_arc_in_days": 6,
        "observations_used": 34,
        "orbit_uncertainty": "8",
        "minimum_orbit_intersection": ".0610026",
        "jupiter_tisserand_invariant": "3.528",
        "epoch_osculation": "2457810.5",
        "eccentricity": ".4862822606331706",
        "semi_major_axis": "2.046222569412201",
        "inclination": "26.04442257499676",
        "ascending_node_longitude": "160.0112062526415",
        "orbital_period": "1069.123147865582",
        "perihelion_distance": "1.051180832599821",
        "perihelion_argument": "3.823736865090757",
        "aphelion_distance": "3.041264306224581",
        "perihelion_time": "2457816.477981740681",
        "mean_anomaly": "357.9870668491823",
        "mean_motion": ".336724539842497",
        "equinox": "J2000",
        "orbit_class": {
            "orbit_class_type": "AMO",
            "orbit_class_description": "Near-Earth asteroid orbits similar to that of 1221 Amor",
            "orbit_class_range": "1.017 AU < q (perihelion) < 1.3 AU"
        }
    },
    "is_sentry_object": false
}